CTC2_L_00282001-01
1 10000U 24562FN  26075.70043981  .00000000  00000+0  00000-0 0  9991
2 10000  80.0000   0.0000 0000000   0.0000   0.0000 13.89609395    15
CTC2_L_00282001-02
1 10001U 23941KJ  26075.70043981  .00000000  00000+0  00000-0 0  9992
2 10001  80.0000   0.0000 0000000   0.0000  90.0000 13.89609395    15
CTC2_L_00282001-03
1 10002U 26158RW  26075.70043981  .00000000  00000+0  00000-0 0  9996
2 10002  80.0000   0.0000 0000000   0.0000 180.0000 13.89609395    16
CTC2_L_00282001-04
1 10003U 26303UL  26075.70043981  .00000000  00000+0  00000-0 0  9999
2 10003  80.0000   0.0000 0000000   0.0000 270.0000 13.89609395    17
CTC2_L_00282002-01
1 10004U 22256TN  26075.70043981  .00000000  00000+0  00000-0 0  9993
2 10004  80.0000  12.0000 0000000   0.0000  12.0000 13.89609395    15
CTC2_L_00282002-02
1 10005U 25788QJ  26075.70043981  .00000000  00000+0  00000-0 0  9997
2 10005  80.0000  12.0000 0000000   0.0000 102.0000 13.89609395    16
CTC2_L_00282002-03
1 10006U 25729KS  26075.70043981  .00000000  00000+0  00000-0 0  9993
2 10006  80.0000  12.0000 0000000   0.0000 192.0000 13.89609395    16
CTC2_L_00282002-04
1 10007U 24126GM  26075.70043981  .00000000  00000+0  00000-0 0  9994
2 10007  80.0000  12.0000 0000000   0.0000 282.0000 13.89609395    17
CTC2_L_00282003-01
1 10008U 25469BT  26075.70043981  .00000000  00000+0  00000-0 0  9996
2 10008  80.0000  24.0000 0000000   0.0000  24.0000 13.89609395    15
CTC2_L_00282003-02
1 10009U 26632QJ  26075.70043981  .00000000  00000+0  00000-0 0  9990
2 10009  80.0000  24.0000 0000000   0.0000 114.0000 13.89609395    16
CTC2_L_00282003-03
1 10010U 26191YH  26075.70043981  .00000000  00000+0  00000-0 0  9992
2 10010  80.0000  24.0000 0000000   0.0000 204.0000 13.89609395    18
CTC2_L_00282003-04
1 10011U 25908R   26075.70043981  .00000000  00000+0  00000-0 0  9998
2 10011  80.0000  24.0000 0000000   0.0000 294.0000 13.89609395    18
CTC2_L_00282004-01
1 10012U 22025VZ  26075.70043981  .00000000  00000+0  00000-0 0  9996
2 10012  80.0000  36.0000 0000000   0.0000  36.0000 13.89609395    16
CTC2_L_00282004-02
1 10013U 24322GL  26075.70043981  .00000000  00000+0  00000-0 0  9999
2 10013  80.0000  36.0000 0000000   0.0000 126.0000 13.89609395    17
CTC2_L_00282004-03
1 10014U 26761ZS  26075.70043981  .00000000  00000+0  00000-0 0  9999
2 10014  80.0000  36.0000 0000000   0.0000 216.0000 13.89609395    18
CTC2_L_00282004-04
1 10015U 25901PS  26075.70043981  .00000000  00000+0  00000-0 0  9995
2 10015  80.0000  36.0000 0000000   0.0000 306.0000 13.89609395    19
CTC2_L_00282005-01
1 10016U 22597MF  26075.70043981  .00000000  00000+0  00000-0 0  9994
2 10016  80.0000  48.0000 0000000   0.0000  48.0000 13.89609395    16
CTC2_L_00282005-02
1 10017U 23633RK  26075.70043981  .00000000  00000+0  00000-0 0  9997
2 10017  80.0000  48.0000 0000000   0.0000 138.0000 13.89609395    17
CTC2_L_00282005-03
1 10018U 24296SB  26075.70043981  .00000000  00000+0  00000-0 0  9994
2 10018  80.0000  48.0000 0000000   0.0000 228.0000 13.89609395    18
CTC2_L_00282005-04
1 10019U 24086QT  26075.70043981  .00000000  00000+0  00000-0 0  9992
2 10019  80.0000  48.0000 0000000   0.0000 318.0000 13.89609395    19
CTC2_L_00282006-01
1 10020U 23096FS  26075.70043981  .00000000  00000+0  00000-0 0  9994
2 10020  80.0000  60.0000 0000000   0.0000  60.0000 13.89609395    19
CTC2_L_00282006-02
1 10021U 24586OA  26075.70043981  .00000000  00000+0  00000-0 0  9990
2 10021  80.0000  60.0000 0000000   0.0000 150.0000 13.89609395    10
CTC2_L_00282006-03
1 10022U 24448RW  26075.70043981  .00000000  00000+0  00000-0 0  9998
2 10022  80.0000  60.0000 0000000   0.0000 240.0000 13.89609395    11
CTC2_L_00282006-04
1 10023U 25525MR  26075.70043981  .00000000  00000+0  00000-0 0  9996
2 10023  80.0000  60.0000 0000000   0.0000 330.0000 13.89609395    12
CTC2_L_00282007-01
1 10024U 23159ZS  26075.70043981  .00000000  00000+0  00000-0 0  9998
2 10024  80.0000  72.0000 0000000   0.0000  72.0000 13.89609395    19
CTC2_L_00282007-02
1 10025U 26223NP  26075.70043981  .00000000  00000+0  00000-0 0  9994
2 10025  80.0000  72.0000 0000000   0.0000 162.0000 13.89609395    10
CTC2_L_00282007-03
1 10026U 25612DD  26075.70043981  .00000000  00000+0  00000-0 0  9996
2 10026  80.0000  72.0000 0000000   0.0000 252.0000 13.89609395    11
CTC2_L_00282007-04
1 10027U 24733PA  26075.70043981  .00000000  00000+0  00000-0 0  9990
2 10027  80.0000  72.0000 0000000   0.0000 342.0000 13.89609395    12
CTC2_L_00282008-01
1 10028U 26298HW  26075.70043981  .00000000  00000+0  00000-0 0  9999
2 10028  80.0000  84.0000 0000000   0.0000  84.0000 13.89609395    19
CTC2_L_00282008-02
1 10029U 25821JL  26075.70043981  .00000000  00000+0  00000-0 0  9991
2 10029  80.0000  84.0000 0000000   0.0000 174.0000 13.89609395    10
CTC2_L_00282008-03
1 10030U 22967UX  26075.70043981  .00000000  00000+0  00000-0 0  9991
2 10030  80.0000  84.0000 0000000   0.0000 264.0000 13.89609395    12
CTC2_L_00282008-04
1 10031U 26762SF  26075.70043981  .00000000  00000+0  00000-0 0  9999
2 10031  80.0000  84.0000 0000000   0.0000 354.0000 13.89609395    13
CTC2_L_00282009-01
1 10032U 22245QX  26075.70043981  .00000000  00000+0  00000-0 0  9992
2 10032  80.0000  96.0000 0000000   0.0000  96.0000 13.89609395    10
CTC2_L_00282009-02
1 10033U 25255GO  26075.70043981  .00000000  00000+0  00000-0 0  9997
2 10033  80.0000  96.0000 0000000   0.0000 186.0000 13.89609395    11
CTC2_L_00282009-03
1 10034U 26195LP  26075.70043981  .00000000  00000+0  00000-0 0  9992
2 10034  80.0000  96.0000 0000000   0.0000 276.0000 13.89609395    12
CTC2_L_00282009-04
1 10035U 22328FA  26075.70043981  .00000000  00000+0  00000-0 0  9997
2 10035  80.0000  96.0000 0000000   0.0000   6.0000 13.89609395    14
CTC2_L_00282010-01
1 10036U 22245QP  26075.70043981  .00000000  00000+0  00000-0 0  9996
2 10036  80.0000 108.0000 0000000   0.0000 108.0000 13.89609395    12
CTC2_L_00282010-02
1 10037U 25729XR  26075.70043981  .00000000  00000+0  00000-0 0  9997
2 10037  80.0000 108.0000 0000000   0.0000 198.0000 13.89609395    12
CTC2_L_00282010-03
1 10038U 22848TC  26075.70043981  .00000000  00000+0  00000-0 0  9997
2 10038  80.0000 108.0000 0000000   0.0000 288.0000 13.89609395    13
CTC2_L_00282010-04
1 10039U 22622GM  26075.70043981  .00000000  00000+0  00000-0 0  9998
2 10039  80.0000 108.0000 0000000   0.0000  18.0000 13.89609395    15
CTC2_L_00282011-01
1 10040U 24931UX  26075.70043981  .00000000  00000+0  00000-0 0  9995
2 10040  80.0000 120.0000 0000000   0.0000 120.0000 13.89609395    15
CTC2_L_00282011-02
1 10041U 24011MV  26075.70043981  .00000000  00000+0  00000-0 0  9995
2 10041  80.0000 120.0000 0000000   0.0000 210.0000 13.89609395    16
CTC2_L_00282011-03
1 10042U 24529MV  26075.70043981  .00000000  00000+0  00000-0 0  9990
2 10042  80.0000 120.0000 0000000   0.0000 300.0000 13.89609395    17
CTC2_L_00282011-04
1 10043U 22319KR  26075.70043981  .00000000  00000+0  00000-0 0  9996
2 10043  80.0000 120.0000 0000000   0.0000  30.0000 13.89609395    18
CTC2_L_00282012-01
1 10044U 22078EF  26075.70043981  .00000000  00000+0  00000-0 0  9999
2 10044  80.0000 132.0000 0000000   0.0000 132.0000 13.89609395    15
CTC2_L_00282012-02
1 10045U 26677FK  26075.70043981  .00000000  00000+0  00000-0 0  9999
2 10045  80.0000 132.0000 0000000   0.0000 222.0000 13.89609395    16
CTC2_L_00282012-03
1 10046U 22803IN  26075.70043981  .00000000  00000+0  00000-0 0  9997
2 10046  80.0000 132.0000 0000000   0.0000 312.0000 13.89609395    17
CTC2_L_00282012-04
1 10047U 24614QO  26075.70043981  .00000000  00000+0  00000-0 0  9990
2 10047  80.0000 132.0000 0000000   0.0000  42.0000 13.89609395    18
CTC2_L_00282013-01
1 10048U 26449UP  26075.70043981  .00000000  00000+0  00000-0 0  9999
2 10048  80.0000 144.0000 0000000   0.0000 144.0000 13.89609395    15
CTC2_L_00282013-02
1 10049U 24536EO  26075.70043981  .00000000  00000+0  00000-0 0  9995
2 10049  80.0000 144.0000 0000000   0.0000 234.0000 13.89609395    16
CTC2_L_00282013-03
1 10050U 24499TG  26075.70043981  .00000000  00000+0  00000-0 0  9995
2 10050  80.0000 144.0000 0000000   0.0000 324.0000 13.89609395    18
CTC2_L_00282013-04
1 10051U 24274KY  26075.70043981  .00000000  00000+0  00000-0 0  9997
2 10051  80.0000 144.0000 0000000   0.0000  54.0000 13.89609395    19
CTC2_L_00282014-01
1 10052U 25173BC  26075.70043981  .00000000  00000+0  00000-0 0  9997
2 10052  80.0000 156.0000 0000000   0.0000 156.0000 13.89609395    16
CTC2_L_00282014-02
1 10053U 24144NR  26075.70043981  .00000000  00000+0  00000-0 0  9995
2 10053  80.0000 156.0000 0000000   0.0000 246.0000 13.89609395    17
CTC2_L_00282014-03
1 10054U 24096PB  26075.70043981  .00000000  00000+0  00000-0 0  9992
2 10054  80.0000 156.0000 0000000   0.0000 336.0000 13.89609395    18
CTC2_L_00282014-04
1 10055U 25211AW  26075.70043981  .00000000  00000+0  00000-0 0  9993
2 10055  80.0000 156.0000 0000000   0.0000  66.0000 13.89609395    19
CTC2_L_00282015-01
1 10056U 26674DC  26075.70043981  .00000000  00000+0  00000-0 0  9998
2 10056  80.0000 168.0000 0000000   0.0000 168.0000 13.89609395    16
CTC2_L_00282015-02
1 10057U 22518DI  26075.70043981  .00000000  00000+0  00000-0 0  9992
2 10057  80.0000 168.0000 0000000   0.0000 258.0000 13.89609395    17
CTC2_L_00282015-03
1 10058U 22228LS  26075.70043981  .00000000  00000+0  00000-0 0  9991
2 10058  80.0000 168.0000 0000000   0.0000 348.0000 13.89609395    18
CTC2_L_00282015-04
1 10059U 22484NP  26075.70043981  .00000000  00000+0  00000-0 0  9996
2 10059  80.0000 168.0000 0000000   0.0000  78.0000 13.89609395    19
CTC2_L_00282016-01
1 10060U 25707BA  26075.70043981  .00000000  00000+0  00000-0 0  9999
2 10060  80.0000 180.0000 0000000   0.0000 180.0000 13.89609395    19
CTC2_L_00282016-02
1 10061U 22160IA  26075.70043981  .00000000  00000+0  00000-0 0  9990
2 10061  80.0000 180.0000 0000000   0.0000 270.0000 13.89609395    10
